{
  "type": "FeatureCollection",
  "features": [
    {
      "type": "Feature",
      "properties": {
        "norad_id": 66767,
        "name": "TRANSPORTER-15DF",
        "group": "last-30-days",
        "lat": -15.056919105652277,
        "lon": -109.9270793609872,
        "alt_km": 516.0832324165258,
        "timestamp": "2025-12-26T12:57:37.975798+00:00",
        "meta_object_name": "TRANSPORTER-15DF",
        "meta_object_id": "2025-276DF",
        "meta_epoch": "2025-12-26T05:46:39.459936",
        "meta_mean_motion": 15.18358989,
        "meta_eccentricity": 0.00020526,
        "meta_inclination": 97.4364,
        "meta_ra_of_asc_node": 71.7923,
        "meta_arg_of_pericenter": 86.4342,
        "meta_mean_anomaly": 273.7127,
        "meta_ephemeris_type": 0,
        "meta_classification_type": "U",
        "meta_norad_cat_id": 66767,
        "meta_element_set_no": 999,
        "meta_rev_at_epoch": 417,
        "meta_bstar": 0.00021662985,
        "meta_mean_motion_dot": 4.383e-05,
        "meta_mean_motion_ddot": 0,
        "tle_line1": "1 66767U 25276DF  25360.24073449  .00004383  00000+0  21663-3 0  9991",
        "tle_line2": "2 66767  97.4364  71.7923 0002052  86.4342 273.7127 15.18358989  4170"
      },
      "geometry": {
        "type": "Point",
        "coordinates": [
          -109.9270793609872,
          -15.056919105652277
        ]
      }
    },
    {
      "type": "Feature",
      "properties": {
        "norad_id": 66768,
        "name": "TRANSPORTER-15DG",
        "group": "last-30-days",
        "lat": -29.13309608632265,
        "lon": -112.08564730032262,
        "alt_km": 517.1481949180079,
        "timestamp": "2025-12-26T12:57:37.975808+00:00",
        "meta_object_name": "TRANSPORTER-15DG",
        "meta_object_id": "2025-276DG",
        "meta_epoch": "2025-12-26T05:42:58.124736",
        "meta_mean_motion": 15.18576446,
        "meta_eccentricity": 0.0002102,
        "meta_inclination": 97.4349,
        "meta_ra_of_asc_node": 71.7914,
        "meta_arg_of_pericenter": 73.7972,
        "meta_mean_anomaly": 286.3494,
        "meta_ephemeris_type": 0,
        "meta_classification_type": "U",
        "meta_norad_cat_id": 66768,
        "meta_element_set_no": 999,
        "meta_rev_at_epoch": 417,
        "meta_bstar": 0.00052432164,
        "meta_mean_motion_dot": 0.00010779,
        "meta_mean_motion_ddot": 0,
        "tle_line1": "1 66768U 25276DG  25360.23817274  .00010779  00000+0  52432-3 0  9997",
        "tle_line2": "2 66768  97.4349  71.7914 0002102  73.7972 286.3494 15.18576446  4175"
      },
      "geometry": {
        "type": "Point",
        "coordinates": [
          -112.08564730032262,
          -29.13309608632265
        ]
      }
    },
    {
      "type": "Feature",
      "properties": {
        "norad_id": 66769,
        "name": "TRANSPORTER-15DH",
        "group": "last-30-days",
        "lat": -22.740107200160633,
        "lon": -111.03406678418173,
        "alt_km": 516.438857907895,
        "timestamp": "2025-12-26T12:57:37.975818+00:00",
        "meta_object_name": "TRANSPORTER-15DH",
        "meta_object_id": "2025-276DH",
        "meta_epoch": "2025-12-26T05:44:38.426496",
        "meta_mean_motion": 15.18444198,
        "meta_eccentricity": 0.00027297,
        "meta_inclination": 97.4411,
        "meta_ra_of_asc_node": 71.8103,
        "meta_arg_of_pericenter": 101.417,
        "meta_mean_anomaly": 258.7371,
        "meta_ephemeris_type": 0,
        "meta_classification_type": "U",
        "meta_norad_cat_id": 66769,
        "meta_element_set_no": 999,
        "meta_rev_at_epoch": 417,
        "meta_bstar": 0.00029728837,
        "meta_mean_motion_dot": 6.056e-05,
        "meta_mean_motion_ddot": 0,
        "tle_line1": "1 66769U 25276DH  25360.23933364  .00006056  00000+0  29729-3 0  9993",
        "tle_line2": "2 66769  97.4411  71.8103 0002729 101.4170 258.7371 15.18444198  4176"
      },
      "geometry": {
        "type": "Point",
        "coordinates": [
          -111.03406678418173,
          -22.740107200160633
        ]
      }
    },
    {
      "type": "Feature",
      "properties": {
        "norad_id": 66770,
        "name": "TRANSPORTER-15DJ",
        "group": "last-30-days",
        "lat": -24.22446814321458,
        "lon": -111.25451803012074,
        "alt_km": 516.1742921991581,
        "timestamp": "2025-12-26T12:57:37.975827+00:00",
        "meta_object_name": "TRANSPORTER-15DJ",
        "meta_object_id": "2025-276DJ",
        "meta_epoch": "2025-12-26T05:44:14.383968",
        "meta_mean_motion": 15.18414228,
        "meta_eccentricity": 0.00033857,
        "meta_inclination": 97.4442,
        "meta_ra_of_asc_node": 71.8219,
        "meta_arg_of_pericenter": 116.9093,
        "meta_mean_anomaly": 243.2487,
        "meta_ephemeris_type": 0,
        "meta_classification_type": "U",
        "meta_norad_cat_id": 66770,
        "meta_element_set_no": 999,
        "meta_rev_at_epoch": 417,
        "meta_bstar": 0.00040071428,
        "meta_mean_motion_dot": 8.182e-05,
        "meta_mean_motion_ddot": 0,
        "tle_line1": "1 66770U 25276DJ  25360.23905537  .00008182  00000+0  40071-3 0  9991",
        "tle_line2": "2 66770  97.4442  71.8219 0003385 116.9093 243.2487 15.18414228  4172"
      },
      "geometry": {
        "type": "Point",
        "coordinates": [
          -111.25451803012074,
          -24.22446814321458
        ]
      }
    },
    {
      "type": "Feature",
      "properties": {
        "norad_id": 66771,
        "name": "TRANSPORTER-15DK",
        "group": "last-30-days",
        "lat": -27.67878499118164,
        "lon": -111.8153395073861,
        "alt_km": 516.5707250719543,
        "timestamp": "2025-12-26T12:57:37.975837+00:00",
        "meta_object_name": "TRANSPORTER-15DK",
        "meta_object_id": "2025-276DK",
        "meta_epoch": "2025-12-26T05:43:20.729568",
        "meta_mean_motion": 15.18511814,
        "meta_eccentricity": 0.00030863,
        "meta_inclination": 97.4436,
        "meta_ra_of_asc_node": 71.8202,
        "meta_arg_of_pericenter": 108.6714,
        "meta_mean_anomaly": 251.4856,
        "meta_ephemeris_type": 0,
        "meta_classification_type": "U",
        "meta_norad_cat_id": 66771,
        "meta_element_set_no": 999,
        "meta_rev_at_epoch": 417,
        "meta_bstar": 0.00045515506,
        "meta_mean_motion_dot": 9.33e-05,
        "meta_mean_motion_ddot": 0,
        "tle_line1": "1 66771U 25276DK  25360.23843437  .00009330  00000+0  45516-3 0  9997",
        "tle_line2": "2 66771  97.4436  71.8202 0003086 108.6714 251.4856 15.18511814  4174"
      },
      "geometry": {
        "type": "Point",
        "coordinates": [
          -111.8153395073861,
          -27.67878499118164
        ]
      }
    },
    {
      "type": "Feature",
      "properties": {
        "norad_id": 66772,
        "name": "TRANSPORTER-15DL",
        "group": "last-30-days",
        "lat": -43.15504597330366,
        "lon": -114.92005705785083,
        "alt_km": 517.4713555368025,
        "timestamp": "2025-12-26T12:57:37.975849+00:00",
        "meta_object_name": "TRANSPORTER-15DL",
        "meta_object_id": "2025-276DL",
        "meta_epoch": "2025-12-26T05:39:16.978752",
        "meta_mean_motion": 15.18772175,
        "meta_eccentricity": 0.00029923,
        "meta_inclination": 97.4428,
        "meta_ra_of_asc_node": 71.8206,
        "meta_arg_of_pericenter": 96.6923,
        "meta_mean_anomaly": 263.4652,
        "meta_ephemeris_type": 0,
        "meta_classification_type": "U",
        "meta_norad_cat_id": 66772,
        "meta_element_set_no": 999,
        "meta_rev_at_epoch": 417,
        "meta_bstar": 0.0014998339,
        "meta_mean_motion_dot": 0.00031222,
        "meta_mean_motion_ddot": 0,
        "tle_line1": "1 66772U 25276DL  25360.23561318  .00031222  00000+0  14998-2 0  9997",
        "tle_line2": "2 66772  97.4428  71.8206 0002992  96.6923 263.4652 15.18772175  4179"
      },
      "geometry": {
        "type": "Point",
        "coordinates": [
          -114.92005705785083,
          -43.15504597330366
        ]
      }
    },
    {
      "type": "Feature",
      "properties": {
        "norad_id": 66773,
        "name": "TRANSPORTER-15DM",
        "group": "last-30-days",
        "lat": -34.56547001477717,
        "lon": -113.05179480721209,
        "alt_km": 517.5308229782513,
        "timestamp": "2025-12-26T12:57:37.975859+00:00",
        "meta_object_name": "TRANSPORTER-15DM",
        "meta_object_id": "2025-276DM",
        "meta_epoch": "2025-12-26T05:41:31.392096",
        "meta_mean_motion": 15.18568229,
        "meta_eccentricity": 0.0003162,
        "meta_inclination": 97.4424,
        "meta_ra_of_asc_node": 71.8173,
        "meta_arg_of_pericenter": 96.2438,
        "meta_mean_anomaly": 263.9157,
        "meta_ephemeris_type": 0,
        "meta_classification_type": "U",
        "meta_norad_cat_id": 66773,
        "meta_element_set_no": 999,
        "meta_rev_at_epoch": 417,
        "meta_bstar": 0.00046797961,
        "meta_mean_motion_dot": 9.611e-05,
        "meta_mean_motion_ddot": 0,
        "tle_line1": "1 66773U 25276DM  25360.23716889  .00009611  00000+0  46798-3 0  9994",
        "tle_line2": "2 66773  97.4424  71.8173 0003162  96.2438 263.9157 15.18568229  4174"
      },
      "geometry": {
        "type": "Point",
        "coordinates": [
          -113.05179480721209,
          -34.56547001477717
        ]
      }
    }
  ]
}